ONEWEB-0228             
1 48780U 21045P   24099.94245885  .00000086  00000+0  19492-3 0  9999
2 48780  87.9007  58.2269 0001802  80.1510 279.9824 13.15549152139244
